CCSDS_OMM_VERS = 2.0
CREATION_DATE  = 
ORIGINATOR     = 

OBJECT_NAME    = QIANFAN 18P
OBJECT_ID      = 2025-233P
CENTER_NAME    = EARTH
REF_FRAME      = TEME
TIME_SYSTEM    = UTC
MEAN_ELEMENT_THEORY = SGP/SGP4

EPOCH          = 2025-10-29T23:16:46.374816
MEAN_MOTION    = 14.26259269
ECCENTRICITY   = .00148869
INCLINATION    = 88.9942
RA_OF_ASC_NODE = 67.0692
ARG_OF_PERICENTER = 173.2220
MEAN_ANOMALY   = 186.9178

EPHEMERIS_TYPE = 0
CLASSIFICATION_TYPE = U
NORAD_CAT_ID   = 66046
ELEMENT_SET_NO = 999
REV_AT_EPOCH   = 180
BSTAR          = .3038034E-3
MEAN_MOTION_DOT = .743E-5
MEAN_MOTION_DDOT = 0

CCSDS_OMM_VERS = 2.0
CREATION_DATE  = 
ORIGINATOR     = 

OBJECT_NAME    = QIANFAN 18Q
OBJECT_ID      = 2025-233Q
CENTER_NAME    = EARTH
REF_FRAME      = TEME
TIME_SYSTEM    = UTC
MEAN_ELEMENT_THEORY = SGP/SGP4

EPOCH          = 2025-10-29T23:16:35.557536
MEAN_MOTION    = 14.26318019
ECCENTRICITY   = .0015067
INCLINATION    = 88.9942
RA_OF_ASC_NODE = 67.0691
ARG_OF_PERICENTER = 173.3222
MEAN_ANOMALY   = 186.8176

EPHEMERIS_TYPE = 0
CLASSIFICATION_TYPE = U
NORAD_CAT_ID   = 66047
ELEMENT_SET_NO = 999
REV_AT_EPOCH   = 180
BSTAR          = .35655832E-3
MEAN_MOTION_DOT = .871E-5
MEAN_MOTION_DDOT = 0

CCSDS_OMM_VERS = 2.0
CREATION_DATE  = 
ORIGINATOR     = 

OBJECT_NAME    = QIANFAN 18R
OBJECT_ID      = 2025-233R
CENTER_NAME    = EARTH
REF_FRAME      = TEME
TIME_SYSTEM    = UTC
MEAN_ELEMENT_THEORY = SGP/SGP4

EPOCH          = 2025-10-29T23:16:31.442304
MEAN_MOTION    = 14.26301185
ECCENTRICITY   = .00149508
INCLINATION    = 88.9943
RA_OF_ASC_NODE = 67.0692
ARG_OF_PERICENTER = 173.0182
MEAN_ANOMALY   = 187.1223

EPHEMERIS_TYPE = 0
CLASSIFICATION_TYPE = U
NORAD_CAT_ID   = 66048
ELEMENT_SET_NO = 999
REV_AT_EPOCH   = 180
BSTAR          = .24367561E-3
MEAN_MOTION_DOT = .6E-5
MEAN_MOTION_DDOT = 0

CCSDS_OMM_VERS = 2.0
CREATION_DATE  = 
ORIGINATOR     = 

OBJECT_NAME    = QIANFAN 18S
OBJECT_ID      = 2025-233S
CENTER_NAME    = EARTH
REF_FRAME      = TEME
TIME_SYSTEM    = UTC
MEAN_ELEMENT_THEORY = SGP/SGP4

EPOCH          = 2025-10-29T23:16:24.792096
MEAN_MOTION    = 14.26330131
ECCENTRICITY   = .00157499
INCLINATION    = 88.9942
RA_OF_ASC_NODE = 67.0691
ARG_OF_PERICENTER = 171.1650
MEAN_ANOMALY   = 188.9824

EPHEMERIS_TYPE = 0
CLASSIFICATION_TYPE = U
NORAD_CAT_ID   = 66049
ELEMENT_SET_NO = 999
REV_AT_EPOCH   = 180
BSTAR          = .28465216E-3
MEAN_MOTION_DOT = .699E-5
MEAN_MOTION_DDOT = 0

CCSDS_OMM_VERS = 2.0
CREATION_DATE  = 
ORIGINATOR     = 

OBJECT_NAME    = QIANFAN 18T
OBJECT_ID      = 2025-233T
CENTER_NAME    = EARTH
REF_FRAME      = TEME
TIME_SYSTEM    = UTC
MEAN_ELEMENT_THEORY = SGP/SGP4

EPOCH          = 2025-10-29T23:16:05.649312
MEAN_MOTION    = 14.26507388
ECCENTRICITY   = .00153089
INCLINATION    = 88.9941
RA_OF_ASC_NODE = 67.0690
ARG_OF_PERICENTER = 171.9479
MEAN_ANOMALY   = 188.1964

EPHEMERIS_TYPE = 0
CLASSIFICATION_TYPE = U
NORAD_CAT_ID   = 66050
ELEMENT_SET_NO = 999
REV_AT_EPOCH   = 180
BSTAR          = .28942964E-3
MEAN_MOTION_DOT = .712E-5
MEAN_MOTION_DDOT = 0

CCSDS_OMM_VERS = 2.0
CREATION_DATE  = 
ORIGINATOR     = 

OBJECT_NAME    = CZ-6A R/B
OBJECT_ID      = 2025-233U
CENTER_NAME    = EARTH
REF_FRAME      = TEME
TIME_SYSTEM    = UTC
MEAN_ELEMENT_THEORY = SGP/SGP4

EPOCH          = 2025-10-29T23:33:03.381696
MEAN_MOTION    = 14.57006867
ECCENTRICITY   = .00861329
INCLINATION    = 89.0280
RA_OF_ASC_NODE = 67.0081
ARG_OF_PERICENTER = 76.0859
MEAN_ANOMALY   = 284.9913

EPHEMERIS_TYPE = 0
CLASSIFICATION_TYPE = U
NORAD_CAT_ID   = 66051
ELEMENT_SET_NO = 999
REV_AT_EPOCH   = 184
BSTAR          = .17269218E-4
MEAN_MOTION_DOT = .101E-5
MEAN_MOTION_DDOT = 0

CCSDS_OMM_VERS = 2.0
CREATION_DATE  = 
ORIGINATOR     = 

OBJECT_NAME    = 2025-234A
OBJECT_ID      = 2025-234A
CENTER_NAME    = EARTH
REF_FRAME      = TEME
TIME_SYSTEM    = UTC
MEAN_ELEMENT_THEORY = SGP/SGP4

EPOCH          = 2025-10-31T06:58:44.544576
MEAN_MOTION    = 15.22104697
ECCENTRICITY   = .00143725
INCLINATION    = 97.4620
RA_OF_ASC_NODE = 9.8638
ARG_OF_PERICENTER = 243.5847
MEAN_ANOMALY   = 116.3915

EPHEMERIS_TYPE = 0
CLASSIFICATION_TYPE = U
NORAD_CAT_ID   = 66053
ELEMENT_SET_NO = 999
REV_AT_EPOCH   = 185
BSTAR          = .15759083E-2
MEAN_MOTION_DOT = .36267E-3
MEAN_MOTION_DDOT = 0

CCSDS_OMM_VERS = 2.0
CREATION_DATE  = 
ORIGINATOR     = 

OBJECT_NAME    = 2025-234B
OBJECT_ID      = 2025-234B
CENTER_NAME    = EARTH
REF_FRAME      = TEME
TIME_SYSTEM    = UTC
MEAN_ELEMENT_THEORY = SGP/SGP4

EPOCH          = 2025-10-31T07:05:35.422368
MEAN_MOTION    = 15.21104848
ECCENTRICITY   = .00137469
INCLINATION    = 97.5048
RA_OF_ASC_NODE = 9.9195
ARG_OF_PERICENTER = 235.7655
MEAN_ANOMALY   = 124.2279

EPHEMERIS_TYPE = 0
CLASSIFICATION_TYPE = U
NORAD_CAT_ID   = 66054
ELEMENT_SET_NO = 999
REV_AT_EPOCH   = 185
BSTAR          = .41085236E-3
MEAN_MOTION_DOT = .9094E-4
MEAN_MOTION_DDOT = 0

CCSDS_OMM_VERS = 2.0
CREATION_DATE  = 
ORIGINATOR     = 

OBJECT_NAME    = 2025-234C
OBJECT_ID      = 2025-234C
CENTER_NAME    = EARTH
REF_FRAME      = TEME
TIME_SYSTEM    = UTC
MEAN_ELEMENT_THEORY = SGP/SGP4

EPOCH          = 2025-10-31T07:04:29.640864
MEAN_MOTION    = 15.21281174
ECCENTRICITY   = .00144235
INCLINATION    = 97.4572
RA_OF_ASC_NODE = 9.8513
ARG_OF_PERICENTER = 238.0929
MEAN_ANOMALY   = 121.8905

EPHEMERIS_TYPE = 0
CLASSIFICATION_TYPE = U
NORAD_CAT_ID   = 66055
ELEMENT_SET_NO = 999
REV_AT_EPOCH   = 185
BSTAR          = .31900234E-3
MEAN_MOTION_DOT = .7082E-4
MEAN_MOTION_DDOT = 0

CCSDS_OMM_VERS = 2.0
CREATION_DATE  = 
ORIGINATOR     = 

OBJECT_NAME    = 2025-234D
OBJECT_ID      = 2025-234D
CENTER_NAME    = EARTH
REF_FRAME      = TEME
TIME_SYSTEM    = UTC
MEAN_ELEMENT_THEORY = SGP/SGP4

EPOCH          = 2025-10-31T07:03:37.851840
MEAN_MOTION    = 15.21541747
ECCENTRICITY   = .00145202
INCLINATION    = 97.4550
RA_OF_ASC_NODE = 9.8489
ARG_OF_PERICENTER = 236.8911
MEAN_ANOMALY   = 123.0932

EPHEMERIS_TYPE = 0
CLASSIFICATION_TYPE = U
NORAD_CAT_ID   = 66056
ELEMENT_SET_NO = 999
REV_AT_EPOCH   = 184
BSTAR          = .1007211E-2
MEAN_MOTION_DOT = .22734E-3
MEAN_MOTION_DDOT = 0

CCSDS_OMM_VERS = 2.0
CREATION_DATE  = 
ORIGINATOR     = 

OBJECT_NAME    = 2025-234E
OBJECT_ID      = 2025-234E
CENTER_NAME    = EARTH
REF_FRAME      = TEME
TIME_SYSTEM    = UTC
MEAN_ELEMENT_THEORY = SGP/SGP4

EPOCH          = 2025-10-22T03:39:05.023008
MEAN_MOTION    = 15.21126112
ECCENTRICITY   = .00221527
INCLINATION    = 97.5441
RA_OF_ASC_NODE = 0.7365
ARG_OF_PERICENTER = 241.6098
MEAN_ANOMALY   = 118.2904

EPHEMERIS_TYPE = 0
CLASSIFICATION_TYPE = U
NORAD_CAT_ID   = 66057
ELEMENT_SET_NO = 999
REV_AT_EPOCH   = 46
BSTAR          = .33848292E-3
MEAN_MOTION_DOT = .7512E-4
MEAN_MOTION_DDOT = 0

CCSDS_OMM_VERS = 2.0
CREATION_DATE  = 
ORIGINATOR     = 

OBJECT_NAME    = STARLINK-35552
OBJECT_ID      = 2025-235A
CENTER_NAME    = EARTH
REF_FRAME      = TEME
TIME_SYSTEM    = UTC
MEAN_ELEMENT_THEORY = SGP/SGP4

EPOCH          = 2025-10-31T01:27:56.691648
MEAN_MOTION    = 15.84092670
ECCENTRICITY   = .00011139
INCLINATION    = 53.1504
RA_OF_ASC_NODE = 132.4648
ARG_OF_PERICENTER = 355.3734
MEAN_ANOMALY   = 4.7280

EPHEMERIS_TYPE = 0
CLASSIFICATION_TYPE = U
NORAD_CAT_ID   = 66058
ELEMENT_SET_NO = 999
REV_AT_EPOCH   = 300
BSTAR          = -.1989994E-2
MEAN_MOTION_DOT = -.435521E-2
MEAN_MOTION_DDOT = 0

